LEMUR-2-ANDIS           
1 42838U 17042P   26068.55941107  .00023598  00000+0  79875-3 0  9998
2 42838  97.3659 249.7950 0009101   4.3248 355.8070 15.30557934473198
STARLINK-36457          
1 67349U 26003R   26068.75051196  .00033652  00000+0  12266-2 0  9993
2 67349  43.0000 226.6801 0001805 270.3176  89.7469 15.27585861  8833
