[{"OBJECT_NAME":"LEMUR-2-ANDIS","OBJECT_ID":"2017-042P","EPOCH":"2026-03-09T13:25:33.116448","MEAN_MOTION":15.30557934,"ECCENTRICITY":0.0009101,"INCLINATION":97.3659,"RA_OF_ASC_NODE":249.795,"ARG_OF_PERICENTER":4.3248,"MEAN_ANOMALY":355.807,"EPHEMERIS_TYPE":0,"CLASSIFICATION_TYPE":"U","NORAD_CAT_ID":42838,"ELEMENT_SET_NO":999,"REV_AT_EPOCH":47319,"BSTAR":0.00079875,"MEAN_MOTION_DOT":0.00023598,"MEAN_MOTION_DDOT":0},{"OBJECT_NAME":"STARLINK-36457","OBJECT_ID":"2026-003R","EPOCH":"2026-03-09T18:00:44.233344","MEAN_MOTION":15.27585861,"ECCENTRICITY":0.0001805,"INCLINATION":43,"RA_OF_ASC_NODE":226.6801,"ARG_OF_PERICENTER":270.3176,"MEAN_ANOMALY":89.7469,"EPHEMERIS_TYPE":0,"CLASSIFICATION_TYPE":"U","NORAD_CAT_ID":67349,"ELEMENT_SET_NO":999,"REV_AT_EPOCH":883,"BSTAR":0.0012266172,"MEAN_MOTION_DOT":0.00033652,"MEAN_MOTION_DDOT":0}]
